     2              NAVIGATION DATA                         RINEX VERSION / TYPE
CCRINEXN V1.6.0 UX  CDDIS               08-JAN-16 23:39     PGM / RUN BY / DATE 
IGS BROADCAST EPHEMERIS FILE                                COMMENT             
    0.1118D-07 -0.7451D-08 -0.5960D-07  0.1192D-06          ION ALPHA           
    0.1167D+06 -0.2294D+06 -0.1311D+06  0.1049D+07          ION BETA            
   -0.931322574615D-09-0.355271367880D-14   147456     1879 DELTA-UTC: A0,A1,T,W
    17                                                      LEAP SECONDS        
                                                            END OF HEADER       
 3 16  1  8 17 59 44.0-0.888016074896D-05-0.511590769747D-11 0.000000000000D+00
    0.300000000000D+02 0.859375000000D+01 0.515592901706D-08 0.298102879682D+01
    0.463798642158D-06 0.331302871928D-03 0.490620732307D-05 0.515378008270D+04
    0.496784000000D+06-0.335276126862D-07 0.138575149272D+01 0.000000000000D+00
    0.958747331698D+00 0.286468750000D+03 0.287105713985D+01-0.825998736076D-08
    0.203937061682D-09 0.100000000000D+01 0.187800000000D+04 0.000000000000D+00
    0.200000000000D+01 0.000000000000D+00 0.186264514923D-08 0.300000000000D+02
    0.489510000000D+06 0.400000000000D+01 0.000000000000D+00 0.000000000000D+00
 3 16  1  8 18  0  0.0-0.888016074896D-05-0.511590769747D-11 0.000000000000D+00
    0.178000000000D+03 0.859375000000D+01 0.515592905086D-08 0.298336967348D+01
    0.463798642158D-06 0.331304734573D-03 0.490620732307D-05 0.515378008652D+04
    0.496800000000D+06-0.335276126862D-07 0.138575135520D+01 0.000000000000D+00
    0.958747359493D+00 0.286468750000D+03 0.287104986476D+01-0.825998691875D-08
    0.203937066226D-09 0.000000000000D+00 0.187800000000D+04 0.000000000000D+00
    0.280000000000D+01 0.000000000000D+00 0.186264514923D-08 0.178000000000D+03
    0.489600000000D+06 0.400000000000D+01 0.000000000000D+00 0.000000000000D+00
12 16  1  8 18  0  0.0 0.359485391527D-03 0.284217094304D-11 0.000000000000D+00
    0.400000000000D+02 0.484375000000D+01 0.419231760418D-08-0.937292852478D+00
    0.266358256340D-06 0.569100200664D-02 0.530853867531D-06 0.515354628944D+04
    0.496800000000D+06 0.100582838059D-06-0.170593442743D+01 0.242143869400D-07
    0.990010002233D+00 0.384437500000D+03 0.641311009589D+00-0.827213053611D-08
   -0.278583024704D-10 0.100000000000D+01 0.187800000000D+04 0.000000000000D+00
    0.200000000000D+01 0.000000000000D+00-0.125728547573D-07 0.400000000000D+02
    0.489630000000D+06 0.000000000000D+00 0.000000000000D+00 0.000000000000D+00
27 16  1  8 18  0  0.0 0.516157597303D-04 0.341060513165D-11 0.000000000000D+00
    0.600000000000D+01-0.145343750000D+03 0.411481425567D-08 0.229696800745D+01
   -0.747665762901D-05 0.298498466145D-02 0.661984086037D-05 0.515363759422D+04
    0.496800000000D+06-0.186264514923D-08-0.712402389939D+00 0.372529029846D-08
    0.969958713074D+00 0.255812500000D+03 0.221130934237D+00-0.798961851397D-08
   -0.218937691062D-09 0.100000000000D+01 0.187800000000D+04 0.000000000000D+00
    0.200000000000D+01 0.000000000000D+00 0.186264514923D-08 0.600000000000D+01
    0.489618000000D+06 0.400000000000D+01 0.000000000000D+00 0.000000000000D+00
 3 16  1  8 19 59 44.0-0.891694799066D-05-0.511590769747D-11 0.000000000000D+00
    0.310000000000D+02 0.787500000000D+01 0.513092800946D-08-0.225261085520D+01
    0.400468707085D-06 0.331794843078D-03 0.514648854732D-05 0.515377908516D+04
    0.503984000000D+06 0.149011611938D-07 0.138569221528D+01-0.558793544769D-08
    0.958749012590D+00 0.282812500000D+03 0.287163215151D+01-0.821427072878D-08
    0.204651381694D-09 0.100000000000D+01 0.187800000000D+04 0.000000000000D+00
    0.200000000000D+01 0.000000000000D+00 0.186264514923D-08 0.310000000000D+02
    0.502146000000D+06 0.400000000000D+01 0.000000000000D+00 0.000000000000D+00
12 16  1  8 20  0  0.0 0.359505414963D-03 0.284217094304D-11 0.000000000000D+00
    0.480000000000D+02 0.119375000000D+02 0.419588896961D-08 0.112937891608D+00
    0.612810254097D-06 0.569167023059D-02 0.426545739174D-06 0.515354734802D+04
    0.504000000000D+06 0.484287738800D-07-0.170599406767D+01 0.763684511185D-07
    0.990009681854D+00 0.385281250000D+03 0.641336963219D+00-0.828784507689D-08
   -0.421446141874D-10 0.100000000000D+01 0.187800000000D+04 0.000000000000D+00
    0.200000000000D+01 0.000000000000D+00-0.125728547573D-07 0.480000000000D+02
    0.496830000000D+06 0.000000000000D+00 0.000000000000D+00 0.000000000000D+00
27 16  1  8 20  0  0.0 0.516404397786D-04 0.341060513165D-11 0.000000000000D+00
    0.800000000000D+01-0.148406250000D+03 0.411981446395D-08-0.293596274080D+01
   -0.756420195103D-05 0.298662239220D-02 0.736117362976D-05 0.515363458252D+04
    0.504000000000D+06 0.204890966415D-07-0.712459851898D+00-0.931322574616D-08
    0.969957245767D+00 0.243406250000D+03 0.221076889654D+00-0.796783189218D-08
   -0.215723271454D-09 0.100000000000D+01 0.187800000000D+04 0.000000000000D+00
    0.200000000000D+01 0.000000000000D+00 0.186264514923D-08 0.800000000000D+01
    0.496818000000D+06 0.400000000000D+01 0.000000000000D+00 0.000000000000D+00
 3 16  1  8 22  0  0.0-0.895373523235D-05-0.511590769747D-11 0.000000000000D+00
    0.380000000000D+02 0.762500000000D+01 0.505342478114D-08-0.120017543651D+01
    0.169500708580D-06 0.331820803694D-03 0.492669641972D-05 0.515377906227D+04
    0.511200000000D+06 0.204890966415D-07 0.138563290858D+01 0.372529029846D-08
    0.958750500378D+00 0.282562500000D+03 0.287165102754D+01-0.821569935971D-08
    0.211080220910D-09 0.100000000000D+01 0.187800000000D+04 0.000000000000D+00
    0.200000000000D+01 0.000000000000D+00 0.186264514923D-08 0.380000000000D+02
    0.504048000000D+06 0.400000000000D+01 0.000000000000D+00 0.000000000000D+00
12 16  1  8 22  0  0.0 0.359525438398D-03 0.284217094304D-11 0.000000000000D+00
    0.490000000000D+02 0.225000000000D+02 0.413731537918D-08 0.116309082308D+01
    0.112131237984D-05 0.569309340790D-02 0.732019543648D-06 0.515355017662D+04
    0.511200000000D+06-0.130385160446D-07-0.170605348702D+01 0.912696123123D-07
    0.990009279552D+00 0.379562500000D+03 0.641438153262D+00-0.826462986936D-08
   -0.650027046078D-10 0.100000000000D+01 0.187800000000D+04 0.000000000000D+00
    0.200000000000D+01 0.000000000000D+00-0.125728547573D-07 0.490000000000D+02
    0.504030000000D+06 0.000000000000D+00 0.000000000000D+00 0.000000000000D+00
27 16  1  8 22  0  0.0 0.516651198268D-04 0.341060513165D-11 0.000000000000D+00
    0.130000000000D+02-0.142937500000D+03 0.405016870578D-08-0.188549742951D+01
   -0.735558569431D-05 0.298607535660D-02 0.759586691856D-05 0.515363632011D+04
    0.511200000000D+06-0.558793544769D-07-0.712516763800D+00 0.931322574616D-08
    0.969955652649D+00 0.238000000000D+03 0.220812866588D+00-0.792568727955D-08
   -0.265011038773D-09 0.100000000000D+01 0.187800000000D+04 0.000000000000D+00
    0.200000000000D+01 0.000000000000D+00 0.186264514923D-08 0.130000000000D+02
    0.504018000000D+06 0.400000000000D+01 0.000000000000D+00 0.000000000000D+00
